Name,Street Address,Zip Code,State,Phone,Fax,Email,Website,Category
Karlsruhe: Taxi-Holl,Pulverhausstr. 38,76135 Karlsruhe,Baden-Württemberg,+49 721 61 61 61,+49 721 56 50 5-45,info@taxi-karlsruhe.de,https://www.taxi-karlsruhe.de,Taxi-Zentralen
Mönchengladbach: Taxizentrale Mönchengladbach e.G.,Alsstr. 191,41063 Mönchengladbach,Nordrhein-Westfalen,+492161 13330,+492161 10077,info@taxizentrale-moenchengladbach.com,http://www.taxizentrale-moenchengladbach.de/page.php?1=,Taxi-Zentralen
Essen: Taxi Süd GbR,Max-Keith-Str. 44,45136 Essen,Nordrhein-Westfalen,+49201 269040,+49201 269072,info@taxisued.de,http://www.taxi-sued.de,Taxi-Zentralen
Aalen: Taxizentrale Aalen GbR,Bahnhofstr. 119,73430 Aalen,Baden-Württemberg,+49736168 507,taxizentrale-aalen@arcor.de,,http://www.taxi-aalen.de,Taxi-Zentralen
Potsdam: Taxi-Genossenschaft Potsdam e.G.,Gerlachstr. 41,14480 Potsdam,Brandenburg,+49331 292929,+49331 2002820 ,kontakt@taxi-potsdam.de,http://www.taxi-potsdam.de,Taxi-Zentralen
Rostock: Taxi-Genossenschaft Rostock eG,Beim Pingelshof 11,18146 Rostock,Mecklenburg-Vorpommern,+49381 685858,+49381 6593050,taxigeno@hansetaxi-rostock.de,http://www.hansetaxi-rostock.de/,Taxi-Zentralen
Münster: Taxiruf Münster GmbH,Lippstädter Str. 88,48155 Münster,Nordrhein-Westfalen,+4925125519,info@taxiruf-muenster.de,,http://www.taxi-muenster.de,Taxi-Zentralen
Wiesbaden: FTZ Funk-Taxi-Zentrale Wiesbaden GmbH,Alte Schmelze 19,65201 Wiesbaden,Hessen,+49611 1667834,+4969  25 00 00,info@taxi-wiesbaden.de,http://www.taxi-wiesbaden.de,Taxi-Zentralen
Wuppertal: Taxi Zentrale Wuppertal,Bornberg 44,42109 Wuppertal,Nordrhein-Westfalen,+49202 27545100,+4920227545106,info@taxi-wuppertal.de,http://www.taxi-wuppertal.de,Taxi-Zentralen
Oberhausen: Taxi Zentrale Oberhausen GmbH,Willy-Brandt-Platz 1,46045 Oberhausen,Nordrhein-Westfalen,+49208 22200,+49208 24089,service@taxitzo.de,http://www.taxitzo.de,Taxi-Zentralen
Frankfurt: Taxi24 Vermittlung e.G.,Homburger Str. 36,60486 Frankfurt am Main,Hessen,+4969 74747676,+4969 70790421,vorstand@taxi-frankfurt.eu,http://www.taxi24-frankfurt.eu,Taxi-Zentralen
Ratingen: Funk-Taxi-Union GmbH,Bahnstr. 22,40878 Ratingen,Nordrhein-Westfalen,+492102 25001,+492102 954930,mail@taxi-25001.de,http://www.taxi-25001.de,Taxi-Zentralen
Mainz: Taxi 910 910 / Allgemeine Funktaxizentrale Mainz eG,An der Fahrt 4,55124 Mainz,Rheinland-Pfalz,+496131 910910,+496131 9109155,info@taxi-mainz.de,http://www.taxi-mainz.de,Taxi-Zentralen
Ludwigshafen: Taxi-Zentrale Ludwigshafen e.V.,Goethestr. 10,67063 Ludwigshafen,Rheinland-Pfalz,+49621 525252,+49621 514073,info@taxi-lu.de,http://www.taxi-lu.de,Taxi-Zentralen
Chemnitz: Taxi-Genossenschaft Chemnitz eG,Werner-Seelenbinder-Str. 13,09120 Chemnitz,Sachsen,+49371 3690013,+493713690020,vorstand@taxi-chemnitz.de,http://www.taxi-chemnitz.de,Taxi-Zentralen
Heilbronn: Taxizentrale Heilbronn eG,Fontanestr.1,74074 Heilbronn,Baden-Württemberg,+497131 58555,+497131 585520,info@taxiheilbronn.de,http://www.taxiheilbronn.de,Taxi-Zentralen
Frankfurt: Taxi Frankfurt eG,Heidelbergerstr.  25,60327 Frankfurt,Hessen,+4969 23 00 01,info@taxi-frankfurt.de,,https://www.taxi-frankfurt.de,Taxi-Zentralen
Offenbach: Taxi-Funk Offenbach e.G.,Daimlerstr. 1,63071 Offenbach,Hessen,+4969 80222,+4969 80226,info@taxi-offenbach.de,http://www.taxi-offenbach.de,Taxi-Zentralen
Hanau: Taxi-Dienst Hanau Stadt und Land e.G.,Am Hauptbahnhof 14a ,63450 Hanau,Hessen,+496181 256025,+496181251212,info@taxi-hanau.de,http://www.taxi-hanau.de,Taxi-Zentralen
Wiesbaden: Wiesbadener Taxi–Zentrale Taxi und Funktaxi eG WTZ,Kreuzberger Ring 50,65205 Wiesbaden,Hessen,+49611 302520,+49611 301066,wtz@taxiwiesbaden.de,http://www.taxiwiesbaden.de/,Taxi-Zentralen
Hansestadt Wismar,Postfach 12 45,23952 Wismar,Mecklenburg-Vorpommern,+493841   2513235,+493841  2513203,BFreitag@wismar.de,http://www.wismar.de,Genehmigungsbehörden
Münster: Taxi Zentrale Münster e.G.,Krögerweg 14,48155 Münster,Nordrhein-Westfalen,+49251 987790,+49251 9877925,info@taxi-60011.de,http://www.taxizentrale-muenster.de,Taxi-Zentralen
Hansestadt Greifswald,Spiegelsdorfer Wende Haus 1,17491 Greifswald,Mecklenburg-Vorpommern,+493834   524110,+493834  524104,B.Kiesendahl@greifswald.de,http://www.greifswald.de,Genehmigungsbehörden
Fachverband Pkw-Verkehr Hessen e.V.,Wolfsangerstraße 100 ,34125 Kassel,Hessen,+49561 71817,+49561 104260,info@hvvt.de,http://www.fachverband-pkw.de/,Taxi-Verbände
Deutscher Taxi- und Mietwagenverband e.V. (BZP),Gerbermühlstraße 9,60594 Frankfurt am Main,Hessen,+4969 9596150,+4969 95961520,info@bzp.org,http://www.bzp.org/,Taxi-Verbände
Alb-Donau-Kreis,Schillerstraße 30,89077 Ulm,Baden-Württemberg,+49731   1851434,+49731  185221434,monika.hofmann@alb-donau-kreis.de,http://www.alb-donau-kreis.de,Genehmigungsbehörden
Hansestadt Rostock,Charles-Darwin-Ring 6,18059 Rostock,Mecklenburg-Vorpommern,+49381   3813207,+49381  3813284,Kerstin.Hansen@rostock.de,http://www.rostock.de,Genehmigungsbehörden
Hansestadt Stralsund,Postfach 2145,18408 Stralsund,Mecklenburg-Vorpommern,+493831   253742,+493831  25253742,jhoehndorf@stralsund.de,http://www.stralsund.de,Genehmigungsbehörden
IHK Ostbrandenburg,Puschkinstraße 12 b,15236 Frankfurt (Oder),Brandenburg,+49335 56211402,+49335  56211490,herner@ihk-ostbrandenburg.de,http://www.ihk-ostbrandenburg.de,IHK-Vertretungen
IHK Potsdam,Breite Straße 2 a - c,14467 Potsdam,Brandenburg,+49331 2786261,+49331  2786293,josephine.grosser@ihk-potsdam.de,http://www.potsdam.ihk24.de,IHK-Vertretungen
Donnersbergkreis,Uhlandstraße 2,67292 Kirchheimbolanden,Rheinland-Pfalz,+496352   7100,+496352  710232,njung@donnersberg.de,http://www.donnersberg.de,Genehmigungsbehörden
Bonn: Taxi Bonn e.G.,Mackestr. 32,53119 Bonn,Nordrhein-Westfalen,+49228 5555500,+49228  5555522,info@taxibonn.de,http://www.taxibonn.de,Taxi-Zentralen
IHK Koblenz,Schloßstr. 2,56068 Koblenz,Rheinland-Pfalz,+49261 106256,+49261 106292,kraft@koblenz.ihk.de,http://www.ihk-koblenz.de,IHK-Vertretungen
IHK für die Pfalz,Ludwigsplatz 2-4,67059 Ludwigshafen,Rheinland-Pfalz,+49621   59041550,+49621  59041554,burkhard.kapp@pfalz.ihk24.de,http://www.pfalz.ihk24.de,IHK-Vertretungen
Solingen: Taxi Zentrale Solingen e.G.,Kronprinzenstr. 32a,42655 Solingen,Nordrhein-Westfalen,+49212 12 088,+4921227 24 67,info@taxizentrale-solingen.de,http://www.taxizentrale-solingen.de,Taxi-Zentralen
Eifelkreis Bitburg-Prüm,Trierer Str. 1,54634 Bitburg,Rheinland-Pfalz,+496561   151090,+496561  151012,stoos.klaus@bitburg-pruem.de,http://www.bitburg-pruem.de,Genehmigungsbehörden
Koblenz: Taxi Koblenz e.G.,Moselring 11,56073 Koblenz,Rheinland-Pfalz,+49261 33055,+49261 17473,zentrale@taxi-koblenz.org,http://www.taxi-koblenz.org,Taxi-Zentralen
Freie Hansestadt Bremen,Ansgaritorstraße 2,28195 Bremen,,+49421   3616621,office@bau.bremen.de,,http://www.bauumwelt.bremen.de,Genehmigungsbehörden
IHK Cottbus,Goethestraße 1,03046 Cottbus,Brandenburg,+49355 3651104,+49355 36526190,manuela.lenk@cottbus.ihk.de,http://www.cottbus.ihk.de,IHK-Vertretungen
Innung des Berliner Taxigewerbes e.V.,Persiusstraße 7,10245 Berlin,Berlin,+4930 23627201 ,+4930 23627203,info@taxiinnung.org,http://www.taxiinnung.org,Taxi-Verbände
Freie und Hansestadt Hamburg,Alter Steinweg 4,20459 Hamburg,Hamburg,+4940 428413754 bzw. -3757,+4940 427941350,taxenstelle@bwvi.hamburg.de,http://www.bwvi.hamburg.de,Genehmigungsbehörden
Enzkreis,Zähringerallee 3,75177 Pforzheim,Baden-Württemberg,+497231   3089305,+497231  3089650,Klaus.Behringer@enzkreis.de,http://www.enzkreis.de,Genehmigungsbehörden
Landesverband Bayerischer Taxi- und Mietwagenunternehmen e.V.,Engelhardstr. 6,81369 München,Bayern,+4989 773077,+4989 772462,info@taxi-bayern.de,http://www.taxi-bayern.de/,Taxi-Verbände
Gesamtverband Verkehrsgewerbe Niedersachsen (GVN) e. V., Lister Kirchweg 95,30177 Hannover,Niedersachsen,+49511 9626210,+49511 9626209,info@gvn.de,http://www.gvn.de,Taxi-Verbände
IHK Braunschweig,Brabandtstraße 11,38100 Braunschweig,Niedersachsen,+49531   4715228,+49531  4715180,christiane.trabitz@braunschweig.ihk.de,http://www.braunschweig.ihk.de,IHK-Vertretungen
Landeshauptstadt Potsdam,Friedrich-Ebert-Str. 79/81,14469 Potsdam,Brandenburg,+49331   2893263,+49331  2893263,Strassenverkehr@Rathaus.Potsdam.de,http://www.potsdam.de,Genehmigungsbehörden
IHK Rheinhessen,Schillerplatz 7,55116 Mainz,Rheinland-Pfalz,+496131   2621301,+496131  2622301,marion.moderer@rheinhessen.ihk24.de,http://www.rheinhessen.ihk24.de,IHK-Vertretungen
IHK Neubrandenburg,Katharinenstrasse 48,17033 Neubrandenburg,Mecklenburg-Vorpommern,+49395 5597309,+49395  5597513,sven.mueller@neubrandenburg.ihk.de,http://www.neubrandenburg.ihk.de,IHK-Vertretungen
IHK Bodensee-Oberschwaben,Lindenstraße 2,88250 Weingarten,Baden-Württemberg,+49751   409129,+49751  40955 129,rossbach@weingarten.ihk.de,http://www.weingarten.ihk.de,IHK-Vertretungen
IHK Berlin,Fasanenstraße 85,10623 Berlin,Berlin,+4930   315 10  415,+4930  315 10  102,kad@berlin.ihk.de,http://www.ihk-berlin.de,IHK-Vertretungen
IHK Bonn/Rhein-Sieg,Bonner Talweg 17,53113 Bonn,Nordrhein-Westfalen,+49228   2284141,+49228  2284225,schneider@bonn.ihk.de,http://www.ihk-bonn.de,IHK-Vertretungen
"Fachvereinigung Personenverkehr, Verband für das Personenverkehrsgewerbe Landesverband Bremen e.V.",Jakobistr. 20,28195 Bremen,,+49421 140155,+49421 170031,fvp@taxi-bremen.de,,Taxi-Verbände
Handelskammer Hamburg,Adolphsplatz 1,20457 Hamburg,Hamburg,+4940   36 138364,+4940  36 138313,Kristina.Bohnenstengel@hk24.de,http://www.hk24.de,IHK-Vertretungen
"Fachvereinigung Personenverkehr Bremerhaven e.V., Verband für das Personenverkehrsgewerbe",Postfach 10 03 07,27503 Bremerhaven,,+494743 9499590,+494743 9499593,fachvereinigung-bhv@gmx.de,,Taxi-Verbände
Deutscher Industrie- und Handelskammertag (DIHK),Breite Straße 29,10178 Berlin,Berlin,+4930   20 30 82 110,+4930  20 30 82 111,thiele.patrick@berlin.dihk.de,http://www.dihk.de,IHK-Vertretungen
Fachvereinigung Personenverkehr Nordrhein Taxi-Mietwagen e.V.,Siemensstr. 1,40789 Monheim,Nordrhein-Westfalen,+492173 95990,+492173 959925,Info@FP-Nordrhein.de,http://www.eurotaximesse.de,Taxi-Verbände
IHK Aschaffenburg,Kerschensteinerstraße 9,63741 Aschaffenburg,Bayern,+496021 880137,+496021  88022161,dang@aschaffenburg.ihk.de,http://www.aschaffenburg.ihk.de,IHK-Vertretungen
Bundesverband Taxi und Mietwagen e.V.,Dorotheenstraße 37,10117 Berlin,Berlin,+49030 212223535,info@bundesverband.taxi,,https://bundesverband.taxi,Taxi-Verbände
IHK Aachen,Theaterstraße 6 - 10,52062 Aachen,Nordrhein-Westfalen,+49241   44 60224,+49241  44 60149,verk@aachen.ihk.de,http://www.aachen.ihk.de,IHK-Vertretungen
Handelskammer Bremen - IHK für Bremen und Bremerhaven,Am Markt 13,28195 Bremen,,+49421   36 37275,+49421  36 37274,albertzard@handelskammer-bremen.de,http://www.handelskammer-bremen.de,IHK-Vertretungen
Behörde für Stadtentwicklung und Umwelt,Stadthausbrücke 8,20355 Hamburg,Hamburg,+4940   428 40  31 86,+4940  428 40  20 10,,http://www.bsu.hamburg.de,Mitglieder des BLFA
Berliner Taxivereinigung e.V.,Grunewaldstraße 70,10783 Berlin,Berlin,+4930 21458881,+4930 21458882,info@berliner-taxi-vereinigung.de,http://www.berliner-taxi-vereinigung.de/,Taxi-Verbände
Ennepe-Ruhr-Kreis,Hattinger Str. 2 a,58332 Schwelm,Nordrhein-Westfalen,+492336 4441137,+492336 9314137,d.tubbenthal@en-kreis.de,http://www.enkreis.de,Genehmigungsbehörden
Burgenlandkreis,Schönburger Str. 41,06618 Naumburg,Sachsen-Anhalt,+493445   731515,+493445  731199,strassenverkehrsamt@blk.de,http://www.burgenlandkreis.de,Genehmigungsbehörden
Altmarkkreis Salzwedel,Karl-Marx-Straße 32,29410 Salzwedel,Sachsen-Anhalt,+493901   840811,+493901  25 07 9,Karin.Schulze@altmarkkreis-salzwedel.de,http://www.altmarkkreis-salzwedel.de,Genehmigungsbehörden
Remscheid:  Funktaxi-Taxi-Vereinigung Remscheid,Lenneper Straße 2,42855 Remscheid,Nordrhein-Westfalen,+492191 388725,+492191388725,info@taxi-remscheid.de,http://www.taxi-remscheid.de,Taxi-Zentralen
Dortmund: Taxi Dortmund e.G.,Königswall 42,44137 Dortmund,Nordrhein-Westfalen,+49231 90600,+49231 144458,info@taxi-dortmund.de,http://www.taxi-dortmund.de,Taxi-Zentralen
Marl: TAXI Jakubiak,Otto-Hue-Str. 10,45772 Marl,Nordrhein-Westfalen,+492365 44400,+492365 413361,order@taxi-jak.de,http://www.taxi-jak.de,Taxi-Zentralen
Bochum: Taxi Bochum e.G.,Ehrenfeldstr. 34,44789 Bochum,Nordrhein-Westfalen,+49234 3330010,+492343330040,buero@taxi-bochum.de,http://www.taxi-bochum.de,Taxi-Zentralen
Essen: Taxi Essen e.G., Bottroper Straße 298a,45356 Essen,Nordrhein-Westfalen,+49201 86654,+49201661688,verwaltung@taxiessen.de,http://www.taxiessen.de,Taxi-Zentralen
Hagen: Taxi Hagen e.G.,Elberfelder Str. 89,58095 Hagen,Nordrhein-Westfalen,+492331 125566,vorstand@taxihagen.de,,,Taxi-Zentralen
IHK Bremerhaven,Friedrich-Ebert-Straße 6,27570 Bremerhaven,Bremen - Freie Hansestadt,+49421 3637271,+49471  9246090,verkehr@handelskammer-bremen.de,http://www.bremerhaven.ihk.de,IHK-Vertretungen
Gelsenkirchen: Taxi Gelsen Interessengemeinschaft,Husemannstr. 59,45879 Gelsenkirchen,Nordrhein-Westfalen,+4920915214,mail@taxi-gelsen.de,,http://www.taxi-gelsen.de,Taxi-Zentralen
Bodenseekreis,Glärnischstr. 1-3,88045 Friedrichshafen,Baden-Württemberg,+497541 2045396,+497541 2047396,harald.baur@bodenseekreis.de,http://www.bodenseekreis.de,Genehmigungsbehörden
Duisburg: Taxi-Funktaxi-Zentrale e.G. Duisburg,Im Schlenk 78,47055 Duisburg,Nordrhein-Westfalen,+49203 425555 ,+49203 4566199,verwaltung@taxi-duisburg.net,http://www.taxi-duisburg.net,Taxi-Zentralen
Krefeld: Krefelder Funktaxi-Besitzerverein e. V.,Moltkeplatz 1,47799 Krefeld,Nordrhein-Westfalen,+492151 22222,+492151 26 000,info@taxiruf-krefeld.de,http://www.taxiruf-krefeld.de,Taxi-Zentralen
Halle: Taxi & Mietwagengenossenschaft Halle/S. eG.,Bergschenkenweg 55a,06118 Halle/Saale,Sachsen-Anhalt,+49345 5252540,+49345 5252566,post@taxi-halle.de,http://www.taxi-halle.de/,Taxi-Zentralen
Düsseldorf: RHEIN-TAXI Datenfunkzentrale 212121 GmbH,Königsberger Str. 100,40231 Düsseldorf,Nordrhein-Westfalen,+49211 21000,+49211 2100150,info@rhein-taxi.de,http://www.rhein-taxi.de,Taxi-Zentralen
Zwickau: Funktaxi Zwickau und Umgebung e.G.,Bosestr. 1,08056 Zwickau,Sachsen,+49375 27 77 716,+4937527 77 713,vorstand@funktaxi-zwickau.de,http://www.funktaxi-zwickau.de,Taxi-Zentralen
IHK Magdeburg,Alter Markt 8,39104 Magdeburg,Sachsen-Anhalt,+49391 5693143,+49391 5693333 143,bluhm@magdeburg.ihk.de,http://www.magdeburg.ihk24.de,IHK-Vertretungen
IHK Halle-Dessau,Franckestraße 5,06110 Halle,Sachsen-Anhalt,+49345   2126261,+49345  212644 261,arost@halle.ihk.de,http://www.halle.ihk.de,IHK-Vertretungen
Bayerisches Staatsministerium für Verkehr,80525 München,Bayern,,+4989   21 62  23 06,+4989  21 62  28 18,poststelle@stmwivt.bayern.de,,Mitglieder des BLFA
Ministerium für Verkehr Schleswig-Holstein,Postfach 71 28,24171 Kiel,Schleswig-Holstein,+49431   988  45 55,+49431  988  48 11,karin.himstedt@wimi.lands.de,,Mitglieder des BLFA
Ministerium für Verkehr Sachsen-Anhalt,Postfach 36 25,39011 Magdeburg,Sachsen-Anhalt,+49391   567  74 89,+49391  567  75 69,grothmann@mbv.lsa-net.de,,Mitglieder des BLFA
Ministerium für Infrastruktur und Raumordnung,Henning-vonTresckow-Str. 2-8,14467 Potsdam,Brandenburg,+49331 866 8270,+49331 866 8366,jobst-hinrich.ubbelohde@mir.brandenburg.de,http://www.mir.brandenburg.de,Mitglieder des BLFA
Hamburg: Hansa-Funktaxi eG,Am Schiffbeker Berg 6a,22111 Hamburg,Hamburg,+49 40 2111 950,+49 40 21117 341,info@taxi211211.de,http://www.taxi211211.de,Taxi-Zentralen
"Hessisches Ministerium für Wirtschaft, Energie, Verkehr und Landesentwicklung",Kaiser-Friedrich-Ring 75,65185 Wiesbaden,Hessen,+49611 8152363,+49611 815492363,patrick.kirsch@wirtschaft.hessen.de,https://wirtschaft.hessen.de//,Mitglieder des BLFA
"Ministerium des Innern, für Sport und Infrastruktur Referat Schienenverkehr, ÖPNV",Schillerplatz 3-5,55116 Mainz,Rheinland-Pfalz,+496131 162762,+496131 16172762,michael.schue@isim.rlp.de,http://www.isim.rlp.de,Mitglieder des BLFA
"Ministerium für Bauen, Wohnen, Stadtentwicklung und Verkehr des Landes Nordrhein-Westfalen",Elisabethstraße 5 - 11,40217 Düsseldorf,Nordrhein-Westfalen,+49211  8372509,,,,Mitglieder des BLFA
Bundesministerium für Verkehr,Postfach 20 01 00,53170 Bonn,,,,,,Mitglieder des BLFA
Kiel: Vineta Verkehrsgesellschaft mbH,Segeberger Landstr. 2b,24145 Kiel,Schleswig-Holstein,+49431 7757575,+49431 77110,willkommen@vineta.net,https://www.vineta.net/impressum/,Taxi-Zentralen
Braunschweig: Braunschweiger Taxenzentrale GmbH & Co. KG,Saarbrückener Str. 246,38116 Braunschweig,Niedersachsen,+49531 55555,+49531 504818,info@taxi-5991.de,http://www.taxi-5991.de,Taxi-Zentralen
Bremen: Taxi-Ruf Bremen 14 0 14,Jakobistr. 20,28195 Bremen,,+49421 140155,+49421 170031,info@taxi-ruf-bremen.de,http://www.taxi-ruf-bremen.de/,Taxi-Zentralen
Berlin: Quality Taxi Vermittlungs GmbH,Persiusstr. 7,10245 Berlin,Berlin,+4930 263000,+4930 26300199,info@qualitytaxi.de,http://www.qualitytaxi.de,Taxi-Zentralen
Minden: MITAX UG,Bahnstr. 1,32423 Minden,Nordrhein-Westfalen,+49571 37807,info@taxizentrale-minden.de,,https://taxizentrale-minden.de/,Taxi-Zentralen
Bielefeld: Bielefelder Funk-Taxi-Zentrale e.G. (BIETA),Eckendorfer Str. 91-93,33609 Bielefeld,Nordrhein-Westfalen,+49521 9711222,+49521 9711212,info@bieta.de,http://www.bieta.de,Taxi-Zentralen
Innenministerium Baden-Württemberg,Postfach 10 24 43,70020 Stuttgart,Baden-Württemberg,+49711   231  5760,johann-christoph.kleinschmidt@im.bwl.de,,,Mitglieder des BLFA
Bielefeld: Funk-Taxi-Zentrale Hansa e.G.,Treppenstr. 3,33647 Bielefeld,Nordrhein-Westfalen,+49521 444366,+49521 444370,hansa3@web.de,https://www.hansa-taxen.de/,Taxi-Zentralen
Freital: Taxi- und Mietwagengenossenschaft Freital eG,Dresdner Str. 124,01705 Freital,Sachsen,+49351 6491692,info@taxi-freital.de,,https://www.taxi-freital.de/,Taxi-Zentralen
Düsseldorf: Taxi Düsseldorf e.G.,Kölner Str. 356,40227 Düsseldorf,Nordrhein-Westfalen,+49211 77760,+49211 777622,info@taxi-duesseldorf.com,https://www.taxi-duesseldorf.com/,Taxi-Zentralen
Straubing: Stadttaxi GmbH,Bahnhofplatz 2,94315 Straubing,Bayern,+49 (0) 9421 989860,+499421 180816,service@stadttaxi.de,http://stadttaxi.de/,Taxi-Zentralen
Wolfenbüttel: Altstadt Taxi OHG,Breite Herzogstr. 11,38300 Wolfenbüttel,Niedersachsen,+495331 77777,+495331 29636,info@altstadt-taxi.de,https://wf-77777.de,Taxi-Zentralen
Leipzig:  Löwentaxi Taxigenossenschaft Leipzig e.G,Jahnallee 11,04109 Leipzig,Sachsen,+49341 9822210,+493419822250,vorstand@loewentaxi.de,http://www.loewentaxi.de,Taxi-Zentralen
IHK Kiel,Bergstraße 2,24103 Kiel,Schleswig-Holstein,+49431 5194207,+49431 5194557,sachkunde@kiel.ihk.de,http://www.ihk-schleswig-holstein.de,IHK-Vertretungen
IHK Lübeck,Fackenburger Allee 2, 23554 Lübeck,Schleswig-Holstein,+49451 6006174,+49451 60064174,napoleonova-wilhelm@ihk-luebeck.de,http://www.ihk-schleswig-holstein.de,IHK-Vertretungen
Hansestadt Lübeck,Meesenring 7,23566 Lübeck,Schleswig-Holstein,+49451   1223320,+49451  122951 3320,mischa.jelen@luebeck.de,http://www.luebeck.de,Genehmigungsbehörden
IHK Flensburg,Heinrichstraße 28 - 34,24937 Flensburg,Schleswig-Holstein,+49461  8069377,service@flensburg.ihk.de,,http://www.flensburg.ihk24.de,IHK-Vertretungen
München: Taxi München e.G.,Engelhardstr. 6,81369 München,Bayern,089 77 30 77,089 77 24 62,info@tmeg.de,http://www.taxi-muenchen.de,Taxi-Zentralen
Karlsruhe: Taxi-Funk-Zentrale Karlsruhe e.G.,Auf der Breit 9b,76227 Karlsruhe,Baden-Württemberg,+49 72 1944 144,+49 72 19441 430,info@taxi-ka.de,http://www.taxi-zentrale-karlsruhe.de,Taxi-Zentralen
Freising: Taxi Funk Zentrale Freising GbR,Alte Poststr. 30A,85356 Freising,Bayern,+49 8161 3666,+498161 4965662,info@taxi-zentrale-freising.de,https://www.taxi-zentrale-freising.de/,Taxi-Zentralen
Stuttgart: Taxi-Auto-Zentrale Stuttgart eG,Karlsbader Str. 42,70372 Stuttgart,Baden-Württemberg,+49 71 15510 000,+49 71 1552 389,taz@taxi-auto-zentrale.de,http://www.taxi-auto-zentrale.de/,Taxi-Zentralen
München: IsarFunk Taxizentrale GmbH & Co. KG,Rosenheimer Str. 139/ XII,81671 München,Bayern,(089) 450 540,+498949001086,info@isarfunk.de,http://www.isarfunk.de,Taxi-Zentralen
Berlin: TaxiFunk Berlin TZB GmbH,Persiusstr. 7,10245 Berlin,Berlin,+4930 6902720,+4930 6902719,info@taxibaer.de,http://www.taxibaer.de,Taxi-Zentralen
Mannheim: Taxi Mannheim 2 18 18 eG,Keplerstraße 28,68165 Mannheim,Baden-Württemberg,+49 62 121 810,+49 62 121 819,info@taxi-mannheim.de,http://www.taxi-mannheim.de,Taxi-Zentralen
Heidelberg: Auto-Funk-Taxi-Vermittlungszentrale Heidelberg eG,Im Bosseldorn 9,69126 Heidelberg,Baden-Württemberg,+49 62 21302 030,+49 62 21315 316,info@taxiheidelberg.de,http://www.taxizentrale-heidelberg.de/,Taxi-Zentralen
Frankfurt: Main Taxi Frankfurt,Schulstraße 37,60594 Frankfurt am Main,Hessen,+4969 490198,+4969 95021093,kontakt@main-taxi-frankfurt.de,http://www.main-taxi-frankfurt.de,Taxi-Zentralen
Mannheim: Taxi-Zentrale Mannheim eG,Gabelsberger Str. 9,68165 Mannheim,Baden-Württemberg,+49 62 14006 780,+49 62 121819,info@taxi-mannheim.de,http://www.taximannheim.de,Taxi-Zentralen
Görlitz: Taxi-Innung GÖRLITZ e. V.,Bahnhofstr. 74,02826 Görlitz,Sachsen,+493581 400837,,,,Taxi-Zentralen
Nürnberg: Taxi-Zentrale Nürnberg eG,Andernacher Straße 33,90411 Nürnberg,Bayern,(0911) 19 410,(0911)952 10-20,info@taxi-nuernberg.de,http://www.taxi-nuernberg.de/,Taxi-Zentralen
Hannover: Hallo Taxi 3811 GmbH,Isernhagener Str. 20,30161 Hannover,Niedersachsen,+49511 3811,+49511 343441,info@taxi-hannover.de,http://www.taxi-hannover.de,Taxi-Zentralen
Dresden: Funktaxi Dresden /  Dresdner Taxigenossenschaft eG,Bodenbacher Str. 122,01277 Dresden,Sachsen,+49351   211 210,+49351  211 21 90,info@taxi-dresden.com,http://www.taxi-dresden.com,Taxi-Zentralen
Hameln: Funk-Taxen-Zentrale Thiedke GmbH,Forster Weg 11-13,31785 Hameln,Niedersachsen,+495151 29199,,,,Taxi-Zentralen
Kaiserslautern: Taxi-Zentrale KL GmbH,Mainzer Str. 25-29,67657 Kaiserslautern,Rheinland-Pfalz,+49 631 3667723,+49 0631 60727,info@kl-taxi.de,http://www.kl-taxi.de,Taxi-Zentralen
Berlin: CityFunk Berlin,Persiusstr. 7,10245 Berlin,Berlin,+4930 6902720,+4930 2132648,info@cityfunk.de,http://www.cityfunk.de,Taxi-Zentralen
Fürth: Taxizentrale Fürth e.G.,Simonstr. 19,90763 Fürth,Bayern,+49911774930,taxi-fuerth@nefkom.net,,https://taxizentrale-fuerth.de/,Taxi-Zentralen
Freiberg: Funk-Taxi-Service GmbH,Roter Weg 39,09599 Freiberg,Sachsen,+493731 26270,+493731262727,info@funktaxi-freiberg.de,http://www.funktaxi-freiberg.de,Taxi-Zentralen
Lindau: Taxi Ring Lindau,Ladestr. 45,88131 Lindau,Bayern,08382 6006,+4983821455,webmaster@taxi-ring-lindau.de,,Taxi-Zentralen
Rosenheim: Funktaxi-Zentrale Edelweiss e.G.,Klepperstr. 11,83026 Rosenheim,Bayern,+49 (0) 8031 35 99 35,+49 (0) 8031 35 99 60,verwaltung@taxi-edelweiss.de,http://www.taxi-edelweiss.de,Taxi-Zentralen
Tübingen: Taxi-Zentral-Ruf Tübingen,Wilhelmstr. 3,72074 Tübingen,Baden-Württemberg,+49 70 71920 555,info@taxi-zentrale-tuebingen.de,,https://taxi-zentrale-tuebingen.de/,Taxi-Zentralen
Esslingen: Taxizentrale Esslingen eG,Kollwitzstr. 1 ,73728 Esslingen,Baden-Württemberg,+49 71 1356 666,+49 71 13508 752,info@taxizentraleesslingen.de,http://www.taxizentraleesslingen.de,Taxi-Zentralen
Neu-Isenburg: Taxi Isenburg GmbH,Schleussnerstr. 58b,63263 Neu-Isenburg,Hessen,+496102 786020,+496102 786021,info@taxi-isenburg.de,http://www.taxi-isenburg.de,Taxi-Zentralen
Freiburg: TAXI Freiburg 55.55.55 GmbH,Lörracher Straße 33,79115 Freiburg,Baden-Württemberg,+49 76 15596 830,+497615596859,info@taxi-freiburg.de,http://www.taxi-freiburg.de,Taxi-Zentralen
Hamburg: Taxi Hamburg 6x6 GmbH & Co. KG,Grindelhof 52,20146 Hamburg,Hamburg,+49 40 66 66 66,+49 40 6829 088,info@taxihamburg.de,http://www.taxihamburg.de,Taxi-Zentralen
Leverkusen: Taxiruf Leverkusen 3333 eG,Moosweg 1,51377 Leverkusen,Nordrhein-Westfalen,+49214  3333,+49214  33333,taxi@taxiruf3333.de,http://www.taxiruf-lev-3333.de,Taxi-Zentralen
Köln: TAXI RUF Köln wirtschaftliche Vereinigung Kölner Taxiunternehmer eG,Bonner Wall 37,50677 Köln,Nordrhein-Westfalen,+49221 168080,+49221 16808117,info@taxiruf.de,http://www.taxiruf.de,Taxi-Zentralen
Wiesbaden: Funk-Taxi-Dienst Wiesbaden e. G.,Steinmetzstr. 2,65197 Wiesbaden,Hessen,+49611 495263,info@taxi-444444.de,,http://www.taxi-444444.de,Taxi-Zentralen
Kiel: Kieler Funk-Taxi-Zentrale eG,Am Kiel-Kanal 11,24106 Kiel,Schleswig-Holstein,+49431 681873,+49431 687951,info@taxikiel.de,http://www.taxikiel.de,Taxi-Zentralen
Braunschweig: Taxi-Ruf Braunschweig GmbH,Dresdenstraße 131,38124 Braunschweig,Niedersachsen,+49531 666666,+49531 66696,info@taxi-braunschweig.de,http://www.taxi-braunschweig.de,Taxi-Zentralen
Hamburg: Taxenvermittlung Funktaxenruf Harburg GmbH,Beckerberg 2,21073 Hamburg,Hamburg,+4940 774353,+4940 76754247,info@funktaxi-harburg.de,http://www.funktaxi-harburg.de,Taxi-Zentralen
Hamburg: Funktaxi-Bergedorf eG,Achterdwars 18,21035 Hamburg,Hamburg,+49 40 7218 034,+49 40 7219 398 ,info@funktaxi-bergedorf.de,http://www.funktaxi-bergedorf.de,Taxi-Zentralen
Hamburg: DAS TAXI Funk & Service e.G.,Am Schiffbeker Berg 6a,22111 Hamburg,Hamburg,+49 40 221 122,+49 40 224 248,mail@das-taxi.de,http://www.das-taxi.de/,Taxi-Zentralen
Hamburg: Autoruf GmbH,Grindelhof 52,20146 Hamburg,Hamburg,+49 40 45011 100,+49 404 5011 101,info@autoruf.de,http://www.autoruf.de,Taxi-Zentralen
Magdeburg: Taxi & Mietwagen Genossenschaft Magdeburg eG,Große Diesdorfer Str. 47,39110 Magdeburg,Sachsen-Anhalt,+493917373755,taxiruf@taximagdeburg.de,,http://www.taximagdeburg.de,Taxi-Zentralen
Aschaffenburg: Taxi-Funk Aschaffenburg GmbH,Ludwigstr. 1,63739 Aschaffenburg,Bayern,+49 (0)6021 2 14 64,+49 (0) 6021 23039,zentrale@taxi-aschaffenburg.de,http://www.taxi-aschaffenburg.de,Taxi-Zentralen
Berlin: Taxi-Ruf WürfelFunk „0800-CABCALL“ AG,Persiusstr. 7,10245 Berlin,Berlin,+4930 210101,+4930 6902719,taxi@wuerfelfunk.de,http://www.wuerfelfunk.de,Taxi-Zentralen
Berlin: Funk Taxi Berlin,Persiusstraße 7,10245 Berlin,Berlin,+4930 261026,+4930 6902719,info@taxi-berlin.de,http://www.funk-taxi-berlin.de,Taxi-Zentralen
Essen: Taxi-Mietwagen-Ruf 211 212 GmbH,Carolus-Magnus-Str. 12, 45356 Essen,Nordrhein-Westfalen,+49201 6161610,+4920161616129,info@taxi-211212.com,http://www.taxi-211212.com/,Taxi-Zentralen
Hamburg: Taxi Alstertal n.e.V.,Frahmredder 20,22393 Hamburg,Hamburg,+49 40 6003 040,+49 40 69795 388,info@taxialstertal.de,http://www.taxialstertal.de,Taxi-Zentralen
Hamburg: Funk-Taxi Wilhelmsburg GmbH,Buschwerder Winkel 7,21107 Hamburg,Hamburg,+49 40 75 77 00,040 - 30 79 643,info@taxi-wilhelmsburg.de,http://www.taxi-wilhelmsburg.de,Taxi-Zentralen
Hamburg: Taxenanruf Blankenese e. V. (TAB),Erik-Blumenfeld-Platz 5,22587 Hamburg,Hamburg,040 – 86 06 02,040 – 86 55 51,info@taxiblankenese.de,http://www.taxiblankenese.de,Taxi-Zentralen
Kassel: Taxi-Service-Zentrale Kassel GmbH,Am Bettenhäuser Bahnhof 5,34123 Kassel,Hessen,+49 56 188 111,+49 56 1880 163,info@kassel-taxi.de,http://www.kassel-taxi.de,Taxi-Zentralen
Oldenburg: Dobben Taxi,Elbestr. 11,26135 Oldenburg,Niedersachsen,taxi.bohe@gmail.com,,,http://www.taxiruf-oldenburg.de/,Taxi-Zentralen
Göttingen: Göttinger Funk-Taxi-Zentrale GbR,Ernst-Ruhstrat-Straße 3,37079 Göttingen,Niedersachsen,+49551 693030,kontakt@taxi-goettingen.de,,http://www.taxi-goettingen.de,Taxi-Zentralen
Darmstadt: Taxi Funk Darmstadt e.G.,Bismarck Str. 20,64293 Darmstadt,Hessen,+49 61 51871 527,+49 61 51895 193,info@taxi-funk-darmstadt.de,http://www.taxi-funk-darmstadt.de,Taxi-Zentralen
Augsburg: Taxi Augsburg eG,Johannes-Haag-Str. 28a,86153 Augsburg,Bayern,0821-35025,+49-821-36340,info@taxi-augsburg.de,http://www.taxi-augsburg.de,Taxi-Zentralen
Ingolstadt: Taxi-Funk Ingolstadt GmbH & Co KG,Hindenburgstraße 50,85057 Ingolstadt,Bayern,0841/19410,+4984185550,post@taxi-ingolstadt.de,http://www.taxi-ingolstadt.de,Taxi-Zentralen
Regensburg: Taxi Regensburg eG,Am Stärzenbach 6,93047 Regensburg,Bayern,0941 – 57 000,+499415852240,taxi-regensburg@t-online.de,http://www.taxi-regensburg.com,Taxi-Zentralen
Würzburg: Taxi Würzburg eG,Sieboldstraße 2,97072 Würzburg,Bayern,0931-19410,0931-7966233,info@taxi-wuerzburg.de,http://www.taxi-wuerzburg.de,Taxi-Zentralen
Kempten: Taxi-Funk e.G. Kempten,Ulmer Straße 22,87437 Kempten,Bayern,(0831) 2 33 33,0831 168 59,info@taxifunk-kempten.de,http://www.taxifunk-kempten.de,Taxi-Zentralen
Bad Tölz: Isar Taxi Bad Tölz,Königsdorfer Str. 49,83646 Bad Tölz,Bayern,+49 8041 - 2911,info@isartaxi-badtoelz.de,,https://www.isartaxi-badtoelz.de/start.html,Taxi-Zentralen
Landshut: Taxi-Zentrale Landshut e.G.,Isargestade 735,84028 Landshut,Bayern,+49871 22011,+49871 22013,zentrale@taxi-landshut.info,http://www.taxi-landshut.info,Taxi-Zentralen
Oldenburg: IHRE Taxen- und Mobilitätszentrale GmbH / au­to-​geering city Taxen GmbH,Mellumstraße 1,26125 Oldenburg,Niedersachsen,+49441 30658,info@oldenburg-taxi.de,,http://www.oldenburg-taxi.de,Taxi-Zentralen
Bamberg: Bamberger Taxigenossenschaft e.G.,Moosstraße 111,96050 Bamberg,Bayern,+49951 916060,+49951 9160622,info@taxi-bamberg.de,http://www.taxi-bamberg.de,Taxi-Zentralen
Osnabrück: Osnabrücker Funk-Taxi-Zentrale 32011 eG,Winkelhausenstraße 9,49090 Osnabrück,Niedersachsen,+49541 32011,+49541 32010,kontakt@taxi32011.de,http://www.32011taxi.de,Taxi-Zentralen
Erlangen: Taxi Erlangen e.G.,Henkestr. 26,91054 Erlangen,Bayern,+499131 810440,+499131 8104422,kontakt@taxi-zentrale-erlangen.de,http://www.taxi-zentrale-erlangen.de,Taxi-Zentralen
Mülheim: TAXIZENTRALE CALL-CARS MÜLHEIM an der Ruhr,Reuterstr. 277,45472 Mülheim an der Ruhr,Nordrhein-Westfalen, +49208 411111, +49208 459459,info@taxicall-cars.de,http://www.call-cars.de,Taxi-Zentralen
Heilbronn: Taxi 22888 GmbH,Neckarsulmerstr. 45,74076 Heilbronn,Baden-Württemberg,+49 7131-79 77 606,+49 7131-79 77 607,info@taxi22888.de,http://www.taxi-heilbronn.de,Taxi-Zentralen
Saarbrücken: 1. Saarbrücker Taxigenossenschaft  eG,Mainzer Str. 52,66121 Saarbrücken,Saarland,+49681 910160,+49681 55001,buero@taxi-saarbruecken.de,http://www.taxi-saarbruecken.de,Taxi-Zentralen
Bremerhaven: Taxi-Lloyd GmbH & Co,Deichstr. 70,27568 Bremerhaven,,+49471 400055,info@taxi-lloyd-bremerhaven.de,,http://www.taxi-lloyd-bremerhaven.de/,Taxi-Zentralen
Salzgitter: Taxi-Ruf Salzgitter GmbH,Gehrbusch 11 - 13,38228 Salzgitter,Niedersachsen,+495341 659090,+495341 659092,info@taxisalzgitter.de,http://www.taxisalzgitter.de,Taxi-Zentralen
Lippstadt: Taxizentrale RoLi GbR,Westernkötter Str. 189,59557 Lippstadt,Nordrhein-Westfalen,+492941 10103,+492941 22110,info@taxi-roli.de,http://www.taxiroli.de,Taxi-Zentralen
Ulm: Taxen Zentrale Ulm e.G.,Multscherstr. 2,89077 Ulm,Baden-Württemberg,+49731 66 0 66,+49731 37 95 11 11,auftrag@ulm-taxi.de,http://www.ulm-taxi.de,Taxi-Zentralen
Celle: TFR Taxen-Funk-Ruf GmbH,Kronestr. 30,29221 Celle,Niedersachsen,+495141 28001,+495141 23333,zentrale@taxi28001.de,http://www.taxi28001.de,Taxi-Zentralen
Wolfsburg: City-Taxi und Mietwagen Zentrale GmbH,Daimlerstraße 24,38446 Wolfsburg,Niedersachsen,+495361 23023,+49536123045,zentrale@city-taxi-wolfsburg.de,http://www.city-taxi-wolfsburg.de/,Taxi-Zentralen
Saarbrücken: Taxi Saarbrücken eG,Ursulinenstr. 42,66111 Saarbrücken,Saarland,+49681 33033,+49681 34524,info@taxi-sb.de,http://www.taxi-sb.de,Taxi-Zentralen
Gießen: Taxi-Blitz Beförderungsgruppe GmbH & Co. KG,Margaretenhütte 45,35398 Gießen,Hessen,+49 641 962 020 ,+49 64 19620 215,info@taxi-blitz.de,http://www.taxi-blitz.de,Taxi-Zentralen
Lüdenscheid: Lüdenscheider-Taxen-Funk-Zentrale,Bahnhofsallee 14,58507 Lüdenscheid,Nordrhein-Westfalen,+492351 4455,+492351 3111,info@taxi-luedenscheid.com,http://www.taxi-luedenscheid.com,Taxi-Zentralen
Leipzig:  4884 - Ihr Funktaxi Älteste Leipziger Funktaxenzentrale GmbH,Lützner Straße 179,04179 Leipzig,Sachsen,+49341 4949300,+493414949303,info@taxi4884.de,http://www.taxi4884.de,Taxi-Zentralen
Schwerin: Schweriner Taxigenossenschaft eG,Wallstraße 66,19053 Schwerin,Mecklenburg-Vorpommern,+49385 717171,+49385 710573,info@schweriner-taxigenossenschaft.de,http://www.sn-taxi.de,Taxi-Zentralen
Hildesheim: Taxenzentrale 55555 GbR,Daimlerring 1,31135 Hildesheim,Niedersachsen,+495121 517576,info@hildesheim.taxi,,http://www.taxenzentrale-55555.de,Taxi-Zentralen
Aachen: Taxiruf Aachener Autodroschken-Vereinigung w. V.,Bendelstr. 28-30,52062 Aachen,Nordrhein-Westfalen,+49241 36911,+4924135000,info@taxiruf-aav.de,http://www.taxiruf-aav.de,Taxi-Zentralen
Cottbus: Taxigenossenschaft Cottbus e.G.,Leipziger Str. 45,03048 Cottbus,Brandenburg,+49355 23334,info@taxicottbus.de,,http://www.taxicottbus.de,Taxi-Zentralen
Böblingen: Taxi-Zentrale Böblingen-Sindelfingen,Waldburgstraße 1,71032 Böblingen,Baden-Württemberg, +497031 19410,+497031 236163,info@taxi-boeblingen-sindelfingen.com,http://www.taxi-böblingen-sindelfingen.de,Taxi-Zentralen
Frankfurt: Taxi68 - TIV Taxi Ihres Vertrauens GmbH,Ziegelhüttenweg 22,60598 Frankfurt am Main,Hessen,+49 69 68 68 68,+49 69 907437 229,info@taxi68.de,http://www.taxi68.de,Taxi-Zentralen
Lübeck: Lübecker Funktaxen Mini Taxi GmbH & Co KG,Schützenstr. 20,23358 Lübeck,Schleswig-Holstein,+49451 81122,+4945184840,info@luebecker-funktaxen.de,http://www.luebecker-funktaxen.de,Taxi-Zentralen
Völklingen: Taxi Völklingen UG,Rathausstr. 53,66333 Völklingen,Saarland,+496898 23030,+496898 87164,info@taxi-voelklingen.de,http://www.taxi-voelklingen.de,Taxi-Zentralen
Landkreis Neunkirchen,Saarbrücker Straße 1,66538 Neunkirchen,Saarland,+496824   9067040,+496824  9067050,cp.kesselring@landkreis-neunkirchen.de,http://www.landkreis-neunkirchen.de,Genehmigungsbehörden
Landkreis Merzig-Wadern,Bahnhofstraße 44,66663 Merzig,Saarland,+496861   80314,+496861  80319,s.nogues@merzig-wadern.de,http://www.merzig-wadern.de,Genehmigungsbehörden
Landesverband Verkehrsgewerbe Saarland (LVS) e.V.,Metzer Str. 123,66117 Saarbrücken,Saarland,+49681 92500,+49681 9250190,info@lvs-saar.de,http://www.lvs-saar.de/,Taxi-Verbände
IHK des Saarlandes,Franz-Josef-Röder-Straße 9,66119 Saarbrücken,Saarland,+49681   95 20810,+49681  95 20889,michael.arnold@saarland.ihk.de,http://www.saarland.ihk.de,IHK-Vertretungen
Neumünster: Taxi 44444 Neumünster e.G.,Altonaer Str. 35,24534 Neumünster,Schleswig-Holstein,+494321 5554551,+494321 5554552,zentrale@44444taxi.com,https://taxi44444.com/,Taxi-Zentralen
Leipzig: Funk Taxi Leipzig GmbH,Moritz-Nebe-Weg 5a,04824 Beucha,Sachsen,+49341 600500,600500@Funktaxi-Leipzig.de,,http://www.Funktaxi-Leipzig.de,Taxi-Zentralen
Weimar: Funk-Taxi-Zentrale Weimar GbR,August-Baudert-Platz 3,99423 Weimar,Thüringen,+493643 7736862,,,,Taxi-Zentralen
"Gera: Taxi-Ruf Gera, Genossenschaft der Geraer Taxiunternehmer e.G.",Gagarinstraße 31,07545 Gera,Thüringen,+49365 8310140,+49365 55201852,info@taxi-gera.de,http://www.taxi-gera.de,Taxi-Zentralen
Eisenach: Taxi- und Mietwagengenossenschaft Eisenach e.G.,Bahnhofstr. 35,99817 Eisenach,Thüringen,+493691 29000,+493691 290029,webmaster@taxi-fuer-eisenach.de,http://www.taxi-fuer-eisenach.de,Taxi-Zentralen
Jena: Taxigenossenschaft Jena e. G.,Grietgasse 12,07743 Jena,Thüringen,+493641 458845,+493641 458899,info@jenataxi.de,http://www.jenataxi.de,Taxi-Zentralen
Erfurt: Das City Taxi AG,Bebelstraße 15,99086 Erfurt,Thüringen,+49361 55 5530,+4936155 5533,info@dascitytaxi.de,http://www.dascitytaxi.de,Taxi-Zentralen
Jena: City-Taxi-Jena,Ernst- Abbe- Platz 5,07743 Jena,Thüringen,+493641450659,info@city-taxi-jena.de,,,Taxi-Zentralen
Frankfurt: TaxiRuf 20304 / Time Car Taxi & Mietwagen GmbH,Ziegelhüttenweg 22,60598 Frankfurt,Hessen,+49 69 63199 177,+49 69 6312 980,kontakt@taxi20304.de,http://www.timecar.de,Taxi-Zentralen
Kaarst: Funk-Taxi-Zentrale Kaarst GbR,Rurstraße 15 a,41564 Kaarst,Nordrhein-Westfalen,+492131   69 0 69,+492131  450 420,TaxiKaarst@gmx.de,https://taxikaarst.de/,Taxi-Zentralen
Fulda: Taxizentrale Fulda e.V.,Buttlarstr. 33,36039 Fulda,Hessen,+49 66 1601 010,+49 66 1601 000 ,info@taxizentrale-fulda.de,http://www.taxizentrale-fulda.de,Taxi-Zentralen
Hamm: Taxengemeinschaft Hamm GbR,Nassauerstr. 39,59065 Hamm,Nordrhein-Westfalen,+492381 123 45,+492381200 36,taxen-hamm@t-online.de,,Taxi-Zentralen
Mühlheim: Fleskes Taxenbetriebsgesellschaft mbH,Zinkhüttenstr. 29,45473 Mülheim an der Ruhr,Nordrhein-Westfalen,+49208   33333,+49208  999333,info@taxi-fleskes.com,http://taxi-fleskes.com,Taxi-Zentralen
Siegen: Taxi-Schmidt GmbH,Auf der Schemscheid 64,57072 Siegen,Nordrhein-Westfalen,+49271 3757333,+49271 31371520,gerold.schmidt@taxi-schmidt-siegen.de,http://www.taxi-schmidt-siegen.de,Taxi-Zentralen
Langenhagen: Taxengemeinschaft Langenhagen GmbH,Walsroder Str. 62,30853 Langenhagen,Niedersachsen,+49511 7798940,verwaltung@taxi-730101.de,,http://www.taxi-730101.de,Taxi-Zentralen
Rosenheim: Inn-Taxi GmbH & Co. KG,Chiemseestr. 6,83022 Rosenheim,Bayern,+49 (0) 8031 2309 0,+49 (0) 8031 2309 199,info@inn-taxi.de,http://www.inn-taxi.de,Taxi-Zentralen
Landsberg am Lech: Taxi-Zentrale Landsberg am Lech,Hauptplatz 175,86899 Landsberg am Lech,Bayern,info@taxizentrale-landsberg.info,,,http://www.taxizentrale-landsberg.info,Taxi-Zentralen
Baden-Baden: TAXI Baden-Baden 38111 GmbH,Wilhelm-Drapp-Str. 17b,76532 Baden-Baden,Baden-Württemberg,+497221 1536,zentrale@taxi38111.de,,http://www.taxi38111.de,Taxi-Zentralen
Frankfurt: Taxi Now Frankfurt,Frankenallee 189,60326 Frankfurt am Main,Hessen,+49 69 558 800,info@taxi-55.de,,http://www.taxi-55.de,Taxi-Zentralen
Bad Pyrmont: Pyrmonter Taxizentrale e.V,Europaplatz 1a,31812 Bad Pyrmont,Niedersachsen,+495281 8910,info@taxi-badpyrmont.de,,http://www.taxi-badpyrmont.de/,Taxi-Zentralen
Landkreis Saarlouis,Kaiser Wilhelm Straße 4-6,66740 Saarlouis,Saarland,+496841   444137,+496831  444308,amt36@kreis-saarlouis.de,http://www.kreis-saarlouis.de,Genehmigungsbehörden
Offenbach: Taxi-Ruf Offenbach GbR  „Die Fledermäuse“,Grabenstr. 12c,63071 Offenbach,Hessen,+49 69 818 282,+49 69 83835 939,info@taxiruf-of.de,http://www.taxiruf-of.de,Taxi-Zentralen
Koblenz: Taxity – Koblenzer Taxi-Service UG,Mayer-Alberti-Str. 25,56070 Koblenz,Rheinland-Pfalz,+49261 40302010,+49261 40302011,info@taxity-koblenz.de,https://taxity-koblenz.de/,Taxi-Zentralen
Erfurt: Taxigenossenschaft Erfurt e.G.,Eugen-Richter-Str. 44,99085 Erfurt,Thüringen,+49361 5768329,info@taxi-erfurt.eu,,https://www.taxi-erfurt.eu,Taxi-Zentralen
Hamburg: CarryCab Hamburg GmbH,Ruhrstraße 90,22761 Hamburg,Hamburg,+4940 408040,+4940 82296754,info@carrycab.de,http://www.carrycab.de,Taxi-Zentralen
Ingolstadt: Alpha Taxizentrale,Steinheilstraße  1,85053  Ingolstadt,Bayern,+498419008908,info@alphataxizentrale.de,,https://alphataxizentrale.de/,Taxi-Zentralen
Eisenach: Taxi Zentrale Eisenach,Mühlhäuser Str. 6,99817 Eisenach,Thüringen,info@taxi-eisenach.com,,,https://www.taxi-eisenach.com,Taxi-Zentralen
Baden-Baden: Taxi-Holl,Aschmattstr. 5,76532 Baden-Baden,Baden-Württemberg,+49 7221 55 5 55,+49 7221 3 99 89 59,mail@taxi-holl.de,https://www.taxi-holl.de,Taxi-Zentralen
